NORAD_CAT_ID,OBJECT_NAME,OBJECT_TYPE,EPOCH,MEAN_MOTION,ECCENTRICITY,INCLINATION,RA_OF_ASC_NODE,ARG_OF_PERICENTER,MEAN_ANOMALY,BSTAR,MEAN_MOTION_DOT,MEAN_MOTION_DDOT,TLE_LINE0,TLE_LINE1,TLE_LINE2,SEMIMAJOR_AXIS,PERIOD,APOGEE,PERIGEE,DECAYED
56452.0,STARLINK-5986,PAYLOAD,2023-10-15 20:57:57,14.98337552,0.000317,70.0009,192.8454,270.0238,90.0558,-0.00011548,-1.471e-05,0.0,0 STARLINK-5986,1 56452U 23064E   23288.87358466 -.00001471  00000-0 -11548-3 0  9994,2 56452  70.0009 192.8454 0003170 270.0238  90.0558 14.98337552 24411,6950.17,96.107,574.238,569.831,0.0
56452.0,STARLINK-5986,PAYLOAD,2023-10-16 03:22:29,14.98348991,0.0003097,70.0008,192.1723,268.1667,91.9137,-0.00010115,-1.3e-05,0.0,0 STARLINK-5986,1 56452U 23064E   23289.14061523 -.00001300  00000-0 -10115-3 0  9990,2 56452  70.0008 192.1723 0003097 268.1667  91.9137 14.98348991 24450,6950.134,96.106,574.152,569.847,0.0
56452.0,STARLINK-5986,PAYLOAD,2023-10-16 11:23:09,14.9834698,0.0002952,70.0012,191.33,271.5564,88.5256,-0.0001767,-2.202e-05,0.0,0 STARLINK-5986,1 56452U 23064E   23289.47441549 -.00002202  00000-0 -17670-3 0  9991,2 56452  70.0012 191.3300 0002952 271.5564  88.5256 14.98346980 24146,6950.14,96.106,574.057,569.954,0.0
56452.0,STARLINK-5986,PAYLOAD,2023-10-16 17:47:42,14.98323871,0.0003299,70.0008,190.6575,267.6936,92.3846,0.00017165,1.955e-05,0.0,0 STARLINK-5986,1 56452U 23064E   23289.74146085  .00001955  00000-0  17165-3 0  9999,2 56452  70.0008 190.6575 0003299 267.6936  92.3846 14.98323871 24547,6950.212,96.107,574.37,569.784,0.0
56452.0,STARLINK-5986,PAYLOAD,2023-10-18 01:50:23,14.98334953,0.0003105,70.001,187.2918,269.8396,90.2408,-4.2325e-05,-5.98e-06,0.0,0 STARLINK-5986,1 56452U 23064E   23291.07665930 -.00000598  00000-0 -42325-4 0  9994,2 56452  70.0010 187.2918 0003105 269.8396  90.2408 14.98334953 24389,6950.178,96.107,574.201,569.885,0.0
56452.0,STARLINK-5986,PAYLOAD,2023-10-18 09:51:02,14.98367877,0.000309,70.0021,186.4502,272.7696,87.3109,-0.0006483,-7.827e-05,0.0,0 STARLINK-5986,1 56452U 23064E   23291.41045036 -.00007827  00000-0 -64830-3 0  9997,2 56452  70.0021 186.4502 0003090 272.7696  87.3109 14.98367877 24791,6950.076,96.105,574.088,569.793,0.0
56452.0,STARLINK-5986,PAYLOAD,2023-10-19 03:28:31,14.98336647,0.0002926,70.0029,184.5985,276.065,84.0176,1.0412e-05,3.1e-07,0.0,0 STARLINK-5986,1 56452U 23064E   23292.14481382  .00000031  00000-0  10412-4 0  9992,2 56452  70.0029 184.5985 0002926 276.0650  84.0176 14.98336647 24909,6950.172,96.107,574.071,570.004,0.0
56452.0,STARLINK-5986,PAYLOAD,2023-10-19 22:42:08,14.98335877,0.0002814,70.0011,182.5795,264.9338,95.15,-3.2674e-05,-4.83e-06,0.0,0 STARLINK-5986,1 56452U 23064E   23292.94593283 -.00000483  00000-0 -32674-4 0  9991,2 56452  70.0011 182.5795 0002814 264.9338  95.1500 14.98335877 24663,6950.175,96.107,573.995,570.084,0.0
56452.0,STARLINK-5986,PAYLOAD,2023-10-20 03:30:32,14.98336985,0.000274,70.0013,182.0746,265.0274,95.0572,-8.8935e-06,-1.99e-06,0.0,0 STARLINK-5986,1 56452U 23064E   23293.14621063 -.00000199  00000-0 -88935-5 0  9998,2 56452  70.0013 182.0746 0002740 265.0274  95.0572 14.98336985 25058,6950.171,96.107,573.941,570.132,0.0
56452.0,STARLINK-5986,PAYLOAD,2023-10-20 21:08:03,14.98317002,0.0002741,70.0016,180.2237,277.2471,82.8377,-0.00017159,-2.139e-05,0.0,0 STARLINK-5986,1 56452U 23064E   23293.88059178 -.00002139  00000-0 -17159-3 0  9995,2 56452  70.0016 180.2237 0002741 277.2471  82.8377 14.98317002 24809,6950.233,96.108,574.003,570.193,0.0
56452.0,STARLINK-5986,PAYLOAD,2023-10-21 01:56:27,14.98346946,0.000269,70.0021,179.7159,292.2674,67.82,-0.00059889,-7.234e-05,0.0,0 STARLINK-5986,1 56452U 23064E   23294.08086991 -.00007234  00000-0 -59889-3 0  9998,2 56452  70.0021 179.7159 0002690 292.2674  67.8200 14.98346946 25196,6950.14,96.106,573.875,570.136,0.0
56452.0,STARLINK-5986,PAYLOAD,2023-10-21 09:57:06,14.98327047,0.0003254,70.0023,178.8765,263.6386,96.4402,-3.956e-05,-5.65e-06,0.0,0 STARLINK-5986,1 56452U 23064E   23294.41466166 -.00000565  00000-0 -39560-4 0  9996,2 56452  70.0023 178.8765 0003254 263.6386  96.4402 14.98327047 24888,6950.202,96.107,574.329,569.805,0.0
56452.0,STARLINK-5986,PAYLOAD,2023-10-21 22:46:10,14.98359164,0.0003043,70.0005,177.5295,262.9448,97.1365,-0.00020614,-2.554e-05,0.0,0 STARLINK-5986,1 56452U 23064E   23294.94872791 -.00002554  00000-0 -20614-3 0  9998,2 56452  70.0005 177.5295 0003043 262.9448  97.1365 14.98359164 24969,6950.103,96.105,574.083,569.853,0.0
56452.0,STARLINK-5986,PAYLOAD,2023-10-22 01:58:26,14.9836725,0.0003192,70.0012,177.1925,264.3969,95.6826,-0.00034498,-4.211e-05,0.0,0 STARLINK-5986,1 56452U 23064E   23295.08224539 -.00004211  00000-0 -34498-3 0  9992,2 56452  70.0012 177.1925 0003192 264.3969  95.6826 14.98367250 25345,6950.078,96.105,574.161,569.724,0.0
56452.0,STARLINK-5986,PAYLOAD,2023-10-22 09:59:07,14.98334968,0.0002873,70.0019,176.3513,283.425,76.6588,-3.1301e-05,-4.66e-06,0.0,0 STARLINK-5986,1 56452U 23064E   23295.41605567 -.00000466  00000-0 -31301-4 0  9992,2 56452  70.0019 176.3513 0002873 283.4250  76.6588 14.98334968 25395,6950.178,96.107,574.039,570.046,0.0
56452.0,STARLINK-5986,PAYLOAD,2023-10-22 21:12:04,14.98311706,0.0003178,70.0001,175.1729,265.9894,94.0902,7.7001e-05,8.25e-06,0.0,0 STARLINK-5986,1 56452U 23064E   23295.88338863  .00000825  00000-0  77001-4 0  9999,2 56452  70.0001 175.1729 0003178 265.9894  94.0902 14.98311706 25467,6950.249,96.108,574.323,569.906,0.0
56452.0,STARLINK-5986,PAYLOAD,2023-10-22 22:48:12,14.98317483,0.0003186,70.0001,175.0045,265.8682,94.2113,-1.7974e-05,-3.07e-06,0.0,0 STARLINK-5986,1 56452U 23064E   23295.95014889 -.00000307  00000-0 -17974-4 0  9996,2 56452  70.0001 175.0045 0003186 265.8682  94.2113 14.98317483 25116,6950.232,96.108,574.311,569.882,0.0
56452.0,STARLINK-5986,PAYLOAD,2023-10-23 19:37:57,14.98333964,0.0003337,69.9994,172.8164,268.5543,91.5233,-5.9463e-05,-8.03e-06,0.0,0 STARLINK-5986,1 56452U 23064E   23296.81802089 -.00000803  00000-0 -59463-4 0  9999,2 56452  69.9994 172.8164 0003337 268.5543  91.5233 14.98333964 25604,6950.181,96.107,574.365,569.726,0.0
56452.0,STARLINK-5986,PAYLOAD,2023-10-23 22:50:12,14.98330094,0.000311,70.0,172.481,268.9676,91.1126,6.5156e-05,6.84e-06,0.0,0 STARLINK-5986,1 56452U 23064E   23296.95153928  .00000684  00000-0  65156-4 0  9996,2 56452  70.0000 172.4810 0003110 268.9676  91.1126 14.98330094 25269,6950.193,96.107,574.219,569.896,0.0
56452.0,STARLINK-5986,PAYLOAD,2023-10-24 08:27:00,14.98343935,0.0002978,70.0007,171.4705,269.9341,90.1477,-0.00014008,-1.765e-05,0.0,0 STARLINK-5986,1 56452U 23064E   23297.35209467 -.00001765  00000-0 -14008-3 0  9993,2 56452  70.0007 171.4705 0002978 269.9341  90.1477 14.98343935 25681,6950.15,96.106,574.085,569.945,0.0
56452.0,STARLINK-5986,PAYLOAD,2023-10-25 14:53:34,14.98336882,0.0002965,70.0008,168.2715,283.2825,76.8003,-3.8623e-05,-5.54e-06,0.0,0 STARLINK-5986,1 56452U 23064E   23298.62053644 -.00000554  00000-0 -38623-4 0  9993,2 56452  70.0008 168.2715 0002965 283.2825  76.8003 14.98336882 25879,6950.172,96.107,574.097,569.976,0.0
56452.0,STARLINK-5986,PAYLOAD,2023-10-26 02:06:30,14.98333266,0.0003136,70.0,167.0945,271.8982,88.1818,-1.4032e-05,-2.6e-06,0.0,0 STARLINK-5986,1 56452U 23064E   23299.08785455 -.00000260  00000-0 -14032-4 0  9998,2 56452  70.0000 167.0945 0003136 271.8982  88.1818 14.98333266 25582,6950.183,96.107,574.227,569.868,0.0
56452.0,STARLINK-5986,PAYLOAD,2023-10-26 21:20:07,14.98332615,0.0002903,70.0,165.0746,265.5042,94.5785,-1.294e-05,-2.47e-06,0.0,0 STARLINK-5986,1 56452U 23064E   23299.88897257 -.00000247  00000-0 -12940-4 0  9991,2 56452  70.0000 165.0746 0002903 265.5042  94.5785 14.98332615 25702,6950.185,96.107,574.067,570.032,0.0
56452.0,STARLINK-5986,PAYLOAD,2023-10-27 00:32:23,14.98334792,0.0003254,69.9992,164.7376,273.1888,86.8899,5.173e-05,5.24e-06,0.0,0 STARLINK-5986,1 56452U 23064E   23300.02248913  .00000524  00000-0  51730-4 0  9995,2 56452  69.9992 164.7376 0003254 273.1888  86.8899 14.98334792 26087,6950.178,96.107,574.305,569.781,0.0
56452.0,STARLINK-5986,PAYLOAD,2023-10-27 08:33:03,14.98330697,0.0003334,70.0001,163.8961,266.6531,93.4246,-3.0529e-05,-4.57e-06,0.0,0 STARLINK-5986,1 56452U 23064E   23300.35629185 -.00000457  00000-0 -30529-4 0  9995,2 56452  70.0001 163.8961 0003334 266.6531  93.4246 14.98330697 25777,6950.191,96.107,574.373,569.739,0.0
56452.0,STARLINK-5986,PAYLOAD,2023-10-27 21:22:08,14.98330687,0.0003076,69.9994,162.5492,266.4693,93.6114,-1.3015e-05,-2.48e-06,0.0,0 STARLINK-5986,1 56452U 23064E   23300.89037227 -.00000248  00000-0 -13015-4 0  9993,2 56452  69.9994 162.5492 0003076 266.4693  93.6114 14.98330687 25854,6950.191,96.107,574.194,569.918,0.0
56452.0,STARLINK-5986,PAYLOAD,2023-10-28 00:34:24,14.98329017,0.0003103,69.9994,162.2126,266.4754,93.6051,-2.78e-05,-4.25e-06,0.0,0 STARLINK-5986,1 56452U 23064E   23301.02389370 -.00000425  00000-0 -27800-4 0  9992,2 56452  69.9994 162.2126 0003103 266.4754  93.6051 14.98329017 26232,6950.196,96.107,574.218,569.904,0.0
56452.0,STARLINK-5986,PAYLOAD,2023-10-28 08:35:04,14.98329844,0.0003141,69.9995,161.3717,273.984,86.096,-5.497e-05,-7.49e-06,0.0,0 STARLINK-5986,1 56452U 23064E   23301.35769433 -.00000749  00000-0 -54970-4 0  9997,2 56452  69.9995 161.3717 0003141 273.9840  86.0960 14.98329844 25928,6950.193,96.107,574.241,569.875,0.0
56452.0,STARLINK-5986,PAYLOAD,2023-10-28 21:24:09,14.98331186,0.0003148,69.9994,160.0257,267.8963,92.1836,-1.9981e-05,-3.31e-06,0.0,0 STARLINK-5986,1 56452U 23064E   23301.89177297 -.00000331  00000-0 -19981-4 0  9997,2 56452  69.9994 160.0257 0003148 267.8963  92.1836 14.98331186 26009,6950.189,96.107,574.242,569.866,0.0
56452.0,STARLINK-5986,PAYLOAD,2023-10-29 00:36:25,14.98332119,0.0003139,69.9993,159.6889,267.9397,92.1403,-8.9732e-06,-2e-06,0.0,0 STARLINK-5986,1 56452U 23064E   23302.02529196 -.00000200  00000-0 -89732-5 0  9999,2 56452  69.9993 159.6889 0003139 267.9397  92.1403 14.98332119 26383,6950.186,96.107,574.233,569.87,0.0
